#cP2018 10  7 18  0  0.00000000     192 ORBIT IGS14 HLM  IGS
## 2022  64800.00000000   900.00000000 58398 0.7500000000000
+   31   G01G02G03G05G06G07G08G09G10G11G12G13G14G15G16G17G18
+        G19G20G21G22G23G24G25G26G27G28G29G30G31G32  0  0  0
+          0  0  0  0  0  0  0  0  0  0  0  0  0  0  0  0  0
+          0  0  0  0  0  0  0  0  0  0  0  0  0  0  0  0  0
+          0  0  0  0  0  0  0  0  0  0  0  0  0  0  0  0  0
++         3  3  3  3  3  3  3  4  3  3  3  4  3  4  3  4  3
++         6  3  3  4  4  3  3  3  5  3  3  3  4  3  0  0  0
++         0  0  0  0  0  0  0  0  0  0  0  0  0  0  0  0  0
++         0  0  0  0  0  0  0  0  0  0  0  0  0  0  0  0  0
++         0  0  0  0  0  0  0  0  0  0  0  0  0  0  0  0  0
%c G  cc GPS ccc cccc cccc cccc cccc ccccc ccccc ccccc ccccc
%c cc cc ccc ccc cccc cccc cccc cccc ccccc ccccc ccccc ccccc
%f  1.2500000  1.025000000  0.00000000000  0.000000000000000
%f  0.0000000  0.000000000  0.00000000000  0.000000000000000
%i    0    0    0    0      0      0      0      0         0
%i    0    0    0    0      0      0      0      0         0
/* ULTRA ORBIT COMBINATION 20221_18 (58399.750) FROM:       
/* cou emu esu gfu ngu siu usu whu                          
/* REFERENCED TO emu CLOCK AND TO WEIGHTED MEAN POLE:       
/* PCV:IGS14_2017 OL/AL:FES2004  NONE     Y  ORB:CMB CLK:CMB
*  2018 10  8  1 30  0.00000000
PG01 -21977.533442 -12724.872865   8117.661984    -98.349123  8  5  7 543       
PG02  12259.607416  20809.933624  11868.845945    -24.441801  7  6  6 543       
PG03 -14376.371129  -5126.717507  21703.890530    145.421085  4  7  4 543       
PG05   4977.817621  22651.557589 -12875.019609     -1.939389  4  4  7 543       
PG06  -2231.508396  16815.113157  20462.521023    352.155321  7  7  6 543       
PG07 -18690.567753    572.005599 -18795.372691    109.947544 12  4  8 543       
PG08 -16232.416238  -8497.233916 -19239.444903   -118.555017  7  8  8 543       
PG09 -25620.749332   6420.398129   2804.771980    501.176665  8 11 10 543       
PG10  11093.873195 -22372.809941  -8743.358976    175.717406  8  8  7 543       
PG11 -24455.228994  -9870.292607  -2523.208589   -712.581717  8  4  6 543       
PG12  11485.278475  10862.503977  21185.620780    300.658098  3  6    543       
PG13   8094.596753  13505.301208 -21503.877415    -88.310574  8  7  4 543       
PG14   8215.531446 -16071.717585  19728.208196    -97.618920  7  5  3 543       
PG15  20224.174809   5225.000501 -16857.421677   -344.484330  6  7  8 543       
PG16   -886.544511 -23627.603979 -11821.487510      4.579446  7  4  5 543       
PG17 -17549.142969  14334.658449  14149.156838    -47.583022  9  5  1 543       
PG18 -19713.056467 -17889.919474  -1586.174796     65.036316  8  5  5 543       
PG19  -8621.732763  15290.974940  19676.823058   -396.381735  5  6  5 543       
PG20  14128.765256 -15103.555024 -16727.360733    516.211121 11  7  2 543       
PG21  16097.205490  -5181.898751 -19672.427809   -325.630168 12  9  4 543       
PG22 -12685.038812 -13376.858510  19364.678686   -541.437930  6  7  6 543       
PG23 -24415.073284   -394.340661  11245.639271   -209.955783  3 10  9 543       
PG24  21901.359822  14875.245517   3526.950652    -57.192829  7  7  6 543       
PG25  15521.319820  -4042.902881  20941.290710   -659.183356  4     3 543       
PG26   4130.819333 -26118.397517  -1438.411455      1.964640  8  5  7 543       
PG27  -5135.998427 -13965.761511 -22087.814586     -3.280217 15  7  8 537       
PG28 -13268.473198  20549.867229  -9791.521557    747.836140 11  5  3 543       
PG29  26002.300047  -4145.168225   3471.794848    360.817913  7  7  7 537       
PG30 -10960.379787  11097.834814 -21476.352580     12.623955  9  2  7 543       
PG31    729.569887 -18066.200816  19337.155073     87.543739  6  3  7 543       
PG32  15977.085037 -15731.879827  14206.008434   -400.904825  9  7  8 543       
*  2018 10  8  1 45  0.00000000
PG01 -22447.117217 -13383.800958   5395.840979    -98.357622  7  6  7 542       
PG02  11023.828643  20123.289012  14138.487897    -24.455720  8  7  6 542       
PG03 -13892.822445  -7547.245308  21315.263536    145.421288     6  4 542       
PG05   4513.434122  23923.000516 -10486.031881     -1.943067     4  6 542       
PG06  -4092.088093  15325.639009  21329.294674    352.146302  8  6  5 542       
PG07 -20173.366346   -909.359185 -17244.525580    109.937537 12  4  8 542       
PG08 -14131.390884  -9368.258372 -20438.212160   -118.560265  7  8  8 542       
PG09 -25259.950505   5997.254260   5590.668360    501.170337  7 10 10 542       
PG10  11119.630468 -21192.371864 -11287.257792    175.710550  8  9  7 542       
PG11 -23966.345443 -10159.667041  -5231.563335   -712.582662  7  4  6 542       
PG12  10839.491773  13172.872185  20216.980572    300.651654  4  6    542       
PG13   5703.371316  14072.116147 -21904.028661    -88.313722  8  7  4 542       
PG14  10300.371374 -16501.089615  18307.570409    -97.622805  7  6  3 542       
PG15  18498.574426   6198.371006 -18421.807382   -344.487088  6  7  8 542       
PG16   -391.370071 -24729.793240  -9246.988305      4.573494  7  5  5 542       
PG17 -18960.210869  14596.202844  11788.493355    -47.583309 10  5    542       
PG18 -19321.638495 -17922.570917  -4386.407836     65.036624  8  6  5 542       
PG19 -10797.922743  15727.430908  18238.370823   -396.382353  6  5  5 542       
PG20  14186.999210 -13097.721345 -18315.465418    516.207947 11  8  2 542       
PG21  17872.208500  -3640.415491 -18491.880523   -325.628733 12  9  5 542       
PG22 -12271.423376 -15449.258659  18029.473400   -541.451284  7  6  6 542       
PG23 -23210.811319  -1071.525331  13539.485903   -209.959324  2 10  9 542       
PG24  21926.103673  15260.717588    744.227559    -57.198657  7  6  6 542       
PG25  15120.220206  -1603.365624  21569.851315   -659.192557  5     3 542       
PG26   4412.882374 -26073.057164   1412.643476      1.970814  7  6  7 542       
PG27  -2778.537499 -14790.087695 -21949.735733     -3.289531 15  8 10 536       
PG28 -13074.880135  19207.357387 -12293.930044    747.834256 11  6  4 542       
PG29  25513.233633  -3816.663753   6303.004648    360.805755  6  7  6 536       
PG30 -12743.045923   9405.139125 -21315.408548     12.615025  9  1  7 542       
PG31   2502.281276 -16620.744953  20491.635501     87.537401  6  5  7 542       
PG32  17454.548807 -16038.134372  11928.521607   -400.897795  9  7  8 542       
*  2018 10  8  2  0  0.00000000
PG01 -22704.170622 -13825.150578   2582.427116    -98.366125  7  6  7 542       
PG02   9558.912142  19368.819653  16175.245300    -24.469569  8  7  5 542       
PG03 -13544.455235  -9924.587258  20558.986951    145.421543     6  4 542       
PG05   4140.490185  24937.685794  -7915.508435     -1.946619  2  4  6 542       
PG06  -6092.035714  13892.421367  21829.927388    352.137326  9  6  5 542       
PG07 -21576.671513  -2189.307819 -15396.724704    109.927271 11  4  8 542       
PG08 -11972.506306 -10398.064736 -21285.095273   -118.566174  6  8  7 542       
PG09 -24637.354494   5431.904383   8280.305111    501.164031  5  9 10 542       
PG10  11172.561921 -19738.973283 -13634.705801    175.840710  8  9  7 536       
PG11 -23201.933607 -10399.898566  -7849.835256   -712.583654  6  3  6 542       
PG12  10348.530191  15384.923091  18896.208298    300.644956  5  6  2 542       
PG13   3322.766583  14773.159096 -21931.165529    -88.316880  8  7  4 542       
PG14  12195.114923 -16983.527200  16577.245125    -97.626651  8  6  4 542       
PG15  16681.626682   7327.642738 -19678.707947   -344.490405  6  6  8 542       
PG16    -18.149850 -25561.751386  -6510.550018      4.567660  8  6  5 542       
PG17 -20097.077037  14839.705039   9227.558706    -47.582934  9  3    542       
PG18 -18680.037956 -17796.768103  -7112.501127     65.036106  8  6  5 542       
PG19 -12769.421346  16228.004944  16480.069020   -396.383382  7  4  5 542       
PG20  14337.107645 -10937.605316 -19590.286053    516.203819 11  7  1 542       
PG21  19585.851650  -2276.790803 -16971.120065   -325.626842 12  9  5 542       
PG22 -11965.816536 -17374.142123  16389.772183   -541.464704  7  5  6 542       
PG23 -21820.430726  -1906.060258  15608.833001   -209.962538    10  9 542       
PG24  21713.060796  15466.045853  -2051.083233    -57.203990  6  6  6 542       
PG25  14843.630303    901.985544  21820.078918   -659.201762  5  3  3 542       
PG26   4663.291954 -25721.562711   4239.167237      1.976996  7  6  7 542       
PG27   -501.375541 -15729.356677 -21436.223846     -3.298920 15  8 11 536       
PG28 -12900.207745  17581.960483 -14578.066365    747.831907 11  7  4 542       
PG29  24745.919437  -3356.208435   9025.676634    360.656293  6  7  7 542       
PG30 -14575.771944   7828.395840 -20787.493874     12.606124  9     7 542       
PG31   4430.658386 -15201.832906  21291.247685     87.530913  7  7  7 542       
PG32  18667.324208 -16313.098241   9445.192062   -400.890810  8  6  8 542       
EOF
